STARLINK-1714
1 46562U 20070AG  26090.83335647  .00141764  00000+0  20251-2 0  9992
2 46562  53.0448   9.4801 0001527 201.9834 310.7724 15.55294320  5895
